QIANFAN-33              
1 61566U 24185Q   25250.24492958  .00000437  00000+0  30738-3 0  9998
2 61566  88.9738  89.5792 0004802 267.9031  92.1595 13.96429886 55693
QIANFAN-34              
1 61567U 24185R   25250.24906070  .00000450  00000+0  28528-3 0  9993
2 61567  88.9715  89.2699 0003520 277.8653  82.2127 14.02181846 55834
QIANFAN-35              
1 61568U 24185S   25250.26635031  .00001032  00000+0  41258-3 0  9994
2 61568  88.9741  88.2159 0004721 232.4304 127.6462 14.27711710 56415
QIANFAN-36              
1 61569U 24185T   25250.26687132  .00000130  00000+0  16952-3 0  9995
2 61569  88.9725  91.1069 0005274 340.9009  19.1946 13.55551167 54858
QIANFAN-37              
1 62238U 24232B   25250.18988689  .00000073  00000+0  94735-4 0  9996
2 62238  88.9950  51.0728 0002183  76.8449 283.2946 13.50962056 86136
QIANFAN-38              
1 62239U 24232C   25250.21475898  .00000051  00000+0  60299-4 0  9998
2 62239  88.9956  50.9794 0016401 112.0691 248.2204 13.50965907 86196
QIANFAN-39              
1 62240U 24232D   25250.24280358  .00000229  00000+0  90924-4 0  9993
2 62240  88.9958  48.3386 0017471  41.3449 318.9062 14.25241436 87646
QIANFAN-40              
1 62241U 24232E   25250.24767772  .00000054  00000+0  65451-4 0  9997
2 62241  88.9985  50.5334 0015344 118.8898 241.3795 13.50962353 86567
